    AK19O040  2020 02 11.1350  3.642318  0.890388   61.8240  354.9264  115.0042  20250703  15.5  2.0  A/2019 O4                                                MPEC 2021-P47
    CK19Q010  2020 07 22.1906  5.002740  1.002395   56.2548   42.4671  155.7212  20250703   8.5  4.0  C/2019 Q1 (Lemmon)                                       MPEC 2024-EF7
    AK19Q020  2019 07 23.6624  1.260810  0.978554  176.5094  188.1249  158.9714  20250703  18.0  2.0  A/2019 Q2                                                MPC117072
    PK19S020  2029 06 21.3642  3.775708  0.204678  216.9314   93.1803   10.4637  20250703  13.5  4.0  P/2019 S2 (PANSTARRS)                                    MPC117072
    PK19S030  2025 12 19.1676  1.807087  0.470749  213.0959  150.1407    8.6940  20250703  18.3  4.0  P/2019 S3 (PANSTARRS)                                    MPEC 2022-CN4
    CK19S040  2020 04  9.3873  3.439103  0.986182   71.3706   63.1558   92.0955  20250703  11.0  4.0  C/2019 S4 (Lemmon)                                       MPEC 2021-S45
    AK19T010  2021 01 14.9393  4.274758  0.889698   90.9822    6.9299  120.8207  20250703  13.0  2.0  A/2019 T1                                                MPEC 2023-N01
    CK19T020  2021 04 22.5153  2.643337  0.999229  239.3868  155.6546  111.3719  20250703   9.0  4.0  C/2019 T2 (Lemmon)                                       MPEC 2023-R20
    CK19T030  2021 03  4.7235  5.953492  0.998705  112.4885  139.5435  121.8745  20250703   6.8  4.0  C/2019 T3 (ATLAS)                                        MPEC 2023-UR6
    CK19T040  2022 06  8.6637  4.237543  0.995186  351.1088  199.9018   53.6246  20250703   5.0  4.0  C/2019 T4 (ATLAS)                                        MPC182878
    PK19T050  2019 08  3.4417  1.523252  0.809777  189.6242  247.6127   33.4930  20250703  15.0  4.0  P/2019 T5 (ATLAS)                                        MPEC 2021-P47
    PK19T060  2019 11  8.8883  2.054909  0.622458  329.0590   71.2477   18.6986  20250703  15.5  4.0  P/2019 T6 (PANSTARRS)                                    MPEC 2021-P47
    PK19U040  2026 04 28.5241  1.844756  0.475747  181.0824  200.0015   11.6954  20250703  19.0  4.0  P/2019 U4 (PANSTARRS)                                    MPC118096
    CK19U050  2023 03 29.4460  3.624254  1.000182  181.4499    2.6128  113.5125  20250703   4.5  4.0  C/2019 U5 (PANSTARRS)                                    MPEC 2025-MC0
    CK19U060  2020 06 18.3186  0.906514  0.997016  329.4303  235.7501   60.9864  20250703  10.0  4.0  C/2019 U6 (Lemmon)                                       MPEC 2022-H04
    CK19V010  2020 07 17.5701  3.092876  0.998824   51.1932   83.1481   61.9482  20250703  11.0  4.0  C/2019 V1 (Borisov)                                      MPEC 2022-N37
    PK19V020  2020 10 17.2428  5.007470  0.331875  335.6331  189.1378   11.8069  20250703  10.0  4.0  P/2019 V2 (Groeller)                                     MPEC 2022-L66
    PK19W010  2029 01 22.3013  3.333197  0.267194   18.8896   35.3616   23.4666  20250703  12.9  4.0  P/2019 W1 (PANSTARRS)                                    MPEC 2023-A50
    PK19X010  2019 07 24.7006  4.301960  0.303829   36.9895   43.6770   10.2457  20250703  10.4  4.0  P/2019 X1 (Pruyne)                                       MPEC 2021-P47
    PK19X020  2026 11 15.2890  1.815322  0.500474  213.5158  250.8310   15.8946  20250703  18.0  4.0  P/2019 X2 (Pan-STARRS)                                   MPEC 2020-C98
    CK19Y010  2020 03 17.1958  0.826393  0.990629   57.9153   31.4772   73.2792  20250703  13.7  4.0  C/2019 Y1 (ATLAS)                                        MPC119999
    CK19Y040  2020 05 29.6558  0.257234  0.999222  177.4098  120.7912   44.9351  20250703  11.8  6.0  C/2019 Y4 (ATLAS)                                        MPEC 2024-A43
    CK19Y04a  2020 05 29.7095  0.255390  1.001364  177.2419  121.1589   45.3698  20250703  11.6  6.0  C/2019 Y4-A (ATLAS)                                      MPEC 2020-L06
    CK19Y04b  2020 05 29.6644  0.256923  0.999811  177.3689  120.8544   45.0164  20250703  12.1  6.0  C/2019 Y4-B (ATLAS)                                      MPEC 2025-CE3
    CK19Y04c  2020 05 29.6634  0.256461  1.002092  177.2747  120.8862   45.1536  20250703  12.7  6.0  C/2019 Y4-C (ATLAS)                                      MPEC 2020-L06
    CK19Y04d  2020 05 29.7493  0.255784  0.996199  177.4177  121.2478   45.2066  20250703  12.5  6.0  C/2019 Y4-D (ATLAS)                                      MPEC 2020-L06
    CK19Y050  2019 08 16.5714  4.933872  0.992820  303.6648   51.7668   82.7743  20250703  11.0  4.0  C/2019 Y5 (PANSTARRS)                                    MPEC 2023-A50
    AK20A010  2019 11 30.2131  1.671642  0.934353  302.4016  119.0640  149.0316  20250703  18.0  2.0  A/2020 A1                                                MPEC 2023-A50
    CK20A020  2020 01  7.1212  0.975244  0.998990   68.0144  286.1892  120.5055  20250703  13.5  4.0  C/2020 A2 (Iwamoto)                                      MPEC 2022-YN2
    CK20A030  2019 06 26.8788  5.753185  0.998863  268.2360  120.7985  146.6211  20250703   8.0  4.0  C/2020 A3 (ATLAS)                                        MPEC 2023-A50
    PK20A040  2019 11 24.4608  2.834330  0.654470  144.9041  312.2813   25.0027  20250703  15.0  4.0  P/2020 A4 (PANSTARRS-Lemmon)                             MPEC 2022-P91
    AK20B010  2019 12 27.6494  1.739215  0.966608  154.8785  309.8034   18.5405  20250703  21.0  2.0  A/2020 B1                                                MPEC 2020-N08
    CK20B020  2020 01 27.2905  2.756052  0.959406  143.6280  354.1780   55.7550  20250703  10.0  4.0  C/2020 B2 (Lemmon)                                       MPEC 2020-HN5
    CK20B030  2019 10 20.7735  3.327425  0.996832  324.9301  185.7467   20.7068  20250703  13.0  4.0  C/2020 B3 (Rankin)                                       MPEC 2022-N37
    PK20B040  2021 11 19.3120  6.435369  0.192888  342.0501  185.9489   11.6031  20250703  10.5  4.0  P/2020 B4 (Sheppard)                                     MPEC 2023-KD6
    CK20F020  2022 07 12.5228  8.813534  1.002604   48.2375  250.3008  163.5897  20250703   4.5  4.0  C/2020 F2 (ATLAS)                                        MPC184409
    CK20F030  2020 07  4.9310  0.293496  0.999270   37.3487   61.0771  129.1145  20250703   7.5  5.2  C/2020 F3 (NEOWISE)                                      MPEC 2021-O56
    CK20F050  2021 03 16.1888  4.326161  0.973665  310.6174  350.5414   52.2321  20250703   6.5  3.2  C/2020 F5 (MASTER)                                       MPEC 2024-UQ8
    CK20F060  2020 04 10.3447  3.498174  0.989780  344.3348  207.8409  174.5842  20250703  14.5  2.8  C/2020 F6 (PANSTARRS)                                    MPEC 2020-L06
    CK20F070  2021 11 13.8682  5.334914  0.990653  227.9831  321.8223   93.9822  20250703   7.0  4.0  C/2020 F7 (Lemmon)                                       MPEC 2024-A43
    CK20F080  2020 05 25.8344  0.432694  1.000066   68.1110  259.8028  110.5565  20250703  10.0  4.0  C/2020 F8 (SWAN)                                         MPEC 2023-J29
    PK20G010  2027 01 24.2731  0.501978  0.860814  207.6479  240.0986   18.5072  20250703  17.0  4.0  P/2020 G1 (Pimentel)                                     MPEC 2020-L06
    CK20H020  2020 04 26.8915  0.828499  0.995323   26.5851  277.6716  124.7792  20250703  14.0  3.2  C/2020 H2 (Pruyne)                                       MPEC 2022-YB4
    CK20H030  2020 06  5.7161  2.300288  1.000000   30.4456  270.6227   62.5292            13.5  4.0  C/2020 H3 (Wierzchos)                                    MPEC 2020-HM1
    CK20H040  2020 08 29.2305  0.927475  0.980616  117.5768  307.4566   84.4946  20250703  15.0  3.2  C/2020 H4 (Leonard)                                      MPEC 2020-L06
    CK20H050  2020 12  9.9606  9.335107  0.998434  326.2656  210.6147   70.2290  20250703   5.0  4.0  C/2020 H5 (Robinson)                                     MPC184409
    CK20H060  2021 09 29.5806  4.696885  0.997640   20.1932  213.6922   79.9887  20250703   8.0  3.2  C/2020 H6 (ATLAS)                                        MPEC 2024-JU4
    CK20H070  2020 06  2.9509  4.419545  0.996854   82.6780  323.5194  135.9235            11.0  4.0  C/2020 H7 (Lemmon)                                       MPEC 2020-KB7
    CK20H080  2020 06  4.7908  4.663416  0.992103  128.8198   68.4386   99.7029  20250703  10.5  4.0  C/2020 H8 (PANSTARRS)                                    MPEC 2021-N06
    AK20H090  2019 12 21.7845  2.562013  0.992502  312.6205  213.1198  137.8737  20250703  18.0  2.0  A/2020 H9                                                MPEC 2022-ED3
    CK20H110  2020 09 12.5594  7.621014  0.999756   91.3663  303.0571  151.3735  20250703   8.5  4.0  C/2020 H11 (PANSTARRS-Lemmon)                            MPEC 2023-HN7
    CK20J010  2021 04 18.0395  3.345148  0.999666  341.5802  226.5861  142.3072  20250703   8.5  3.2  C/2020 J1 (SONEAR)                                       MPEC 2023-KD6
    CK20K010  2023 05  8.7554  3.074035  0.998742  213.9707   94.3664   89.6713  20250703   5.5  4.0  C/2020 K1 (PANSTARRS)                                    MPC184409
    CK20K020  2020 08  4.4344  8.880287  1.000978   67.3103  288.4337   90.9889  20250703  10.8  4.0  C/2020 K2 (PANSTARRS)                                    MPEC 2021-N06
    CK20K030  2020 06  1.0031  1.583069  1.000000   64.4924   28.3546  129.0152            14.5  4.0  C/2020 K3 (Leonard)                                      MPEC 2020-KF9
    CK20K040  2020 03  4.9811  1.744042  0.927104  308.7845  264.2743  125.5850  20250703  16.5  4.0  C/2020 K4 (PANSTARRS)                                    MPEC 2020-L06
    CK20K050  2021 06  4.2544  1.540680  1.000807  249.6415   86.1418   67.0686  20250703  11.0  4.0  C/2020 K5 (PANSTARRS)                                    MPEC 2021-R75
